[{"OBJECT_NAME":"ITASAT","OBJECT_ID":"2018-099AE","EPOCH":"2026-03-09T09:05:41.837280","MEAN_MOTION":15.17669542,"ECCENTRICITY":0.00122662,"INCLINATION":97.4161,"RA_OF_ASC_NODE":121.9137,"ARG_OF_PERICENTER":347.5066,"MEAN_ANOMALY":12.5862,"EPHEMERIS_TYPE":0,"CLASSIFICATION_TYPE":"U","NORAD_CAT_ID":43786,"ELEMENT_SET_NO":999,"REV_AT_EPOCH":39776,"BSTAR":0.00041167934,"MEAN_MOTION_DOT":8.243e-5,"MEAN_MOTION_DDOT":0},{"OBJECT_NAME":"TIANYI A","OBJECT_ID":"2025-103A","EPOCH":"2026-03-09T23:28:50.058624","MEAN_MOTION":15.19175591,"ECCENTRICITY":0.00016783,"INCLINATION":97.412,"RA_OF_ASC_NODE":143.3859,"ARG_OF_PERICENTER":88.7813,"MEAN_ANOMALY":271.3614,"EPHEMERIS_TYPE":0,"CLASSIFICATION_TYPE":"U","NORAD_CAT_ID":64048,"ELEMENT_SET_NO":999,"REV_AT_EPOCH":4501,"BSTAR":0.0001128032,"MEAN_MOTION_DOT":2.305e-5,"MEAN_MOTION_DDOT":0}]
